[{"OBJECT_ID":"2016-035A","OBJECT_NAME":"INTELSAT 31","NORAD_CAT_ID":"41581","OBJECT_TYPE":"PAYLOAD","PERIOD":"1436.103","INCLINATION":"0.0315","APOGEE":"35797.000","PERIGEE":"35776.449","ECCENTRICITY":"0.0002437","MEAN_MOTION":"1.00271329","TLE_LINE1":"1 41581U 16035A   16239.52470808 -.00000180  00000-0  00000+0 0  9998","TLE_LINE2":"2 41581   0.0315 215.3317 0002437  18.6981 194.9947  1.00271329   795","LAUNCH_DATE":"2016-06-09","LAUNCH_SITE":"TYURATAM MISSILE AND SPACE COMPLEX","OWNER":"INTERNATIONAL TELECOMMUNICATIONS SATELLITE ORGANIZATION (INTELSAT)","ORBIT_TYPE":"Geosynchronous","OPERATIONAL_STATUS":"Operational","satInfo":{"lng":-104.43037527389436,"lat":0.8704105824302355,"elevation":-7.723930841675419,"azimuth":59.430375273894334,"range":42539.718158747164,"height":35780.484438064035,"velocity":3.0753090438829003},"x":-347,"y":89,"dx":-8,"dy":30},{"OBJECT_ID":"2016-037A","OBJECT_NAME":"BEIDOU G7","NORAD_CAT_ID":"41586","OBJECT_TYPE":"PAYLOAD","PERIOD":"1436.064","INCLINATION":"1.732","APOGEE":"35801.834","PERIGEE":"35770.084","ECCENTRICITY":"0.0003765","MEAN_MOTION":"1.00274058","TLE_LINE1":"1 41586U 16037A   16238.52689913 -.00000274 +00000-0 +00000-0 0  9998","TLE_LINE2":"2 41586 001.7320 308.3119 0003765 268.7600 091.2952 01.00274058000874","LAUNCH_DATE":"2016-06-12","LAUNCH_SITE":"Xichang Space Center, China","OWNER":"PEOPLES REPUBLIC OF CHINA","ORBIT_TYPE":"Geosynchronous","OPERATIONAL_STATUS":"Operational","satInfo":{"lng":-38.69235439736617,"lat":0.043039448131831616,"elevation":-8.529855862480371,"azimuth":353.6923543973661,"range":42646.11131406664,"height":35796.26511555879,"velocity":3.074521448087948},"x":-224,"y":-279,"dx":24,"dy":19},{"OBJECT_ID":"2016-039A","OBJECT_NAME":"BRISAT","NORAD_CAT_ID":"41591","OBJECT_TYPE":"PAYLOAD","PERIOD":"1436.177","INCLINATION":"0.0239","APOGEE":"35797.769","PERIGEE":"35778.584","ECCENTRICITY":"0.0002275","MEAN_MOTION":"1.00266149","TLE_LINE1":"1 41591U 16039A   16238.00206620  .00000000  00000-0  10000-3 0  9999","TLE_LINE2":"2 41591   0.0239 125.6118 0002275  33.1980 326.0873  1.00266149   750","LAUNCH_DATE":"2016-06-18","LAUNCH_SITE":"FRENCH GUIANA","OWNER":"INDONESIA","ORBIT_TYPE":"Geosynchronous","OPERATIONAL_STATUS":"Operational","satInfo":{"lng":-143.6915556990313,"lat":1.9830215707954495,"elevation":-6.628456272799614,"azimuth":98.69155569903126,"range":42440.70589544948,"height":35804.11284844457,"velocity":3.074376080986996},"x":-212,"y":289,"dx":-25,"dy":18},{"OBJECT_ID":"2016-039B","OBJECT_NAME":"ECHOSTAR 18","NORAD_CAT_ID":"41592","OBJECT_TYPE":"PAYLOAD","PERIOD":"1436.199","INCLINATION":"0.0123","APOGEE":"35799.420","PERIGEE":"35777.797","ECCENTRICITY":"0.0002564","MEAN_MOTION":"1.00264608","TLE_LINE1":"1 41592U 16039B   16233.27279032 -.00000288 +00000-0 +00000-0 0  9996","TLE_LINE2":"2 41592 000.0123 096.1757 0002564 067.5832 196.2493 01.00264608000654","LAUNCH_DATE":"2016-06-18","LAUNCH_SITE":"FRENCH GUIANA","OWNER":"UNITED STATES OF AMERICA","ORBIT_TYPE":"Geosynchronous","OPERATIONAL_STATUS":"Operational","satInfo":{"lng":-86.24441376041567,"lat":-0.1453474462118531,"elevation":-8.7131651114735,"azimuth":41.24441376041564,"range":42670.12874965606,"height":35799.67584303498,"velocity":3.0743033383056937},"x":-357,"y":-23,"dx":2,"dy":31},{"OBJECT_ID":"2016-050A","OBJECT_NAME":"JCSAT 16","NORAD_CAT_ID":"41729","OBJECT_TYPE":"PAYLOAD","PERIOD":"1436.074","INCLINATION":"0.0588","APOGEE":"35795.861","PERIGEE":"35776.465","ECCENTRICITY":"0.00023","MEAN_MOTION":"1.00273332","TLE_LINE1":"1 41729U 16050A   16238.84759331 -.00000228 +00000-0 +00000-0 0  9998","TLE_LINE2":"2 41729 000.0588 284.8956 0002300 245.1885 259.5796 01.00273332000178","LAUNCH_DATE":"2016-08-14","LAUNCH_SITE":"AIR FORCE EASTERN TEST RANGE","OWNER":"JAPAN","ORBIT_TYPE":"Geosynchronous","OPERATIONAL_STATUS":"Operational","satInfo":{"lng":-128.89771466287206,"lat":-1.651447208991314,"elevation":-10.179251087901285,"azimuth":83.89771466287199,"range":42843.61999502138,"height":35808.61531916338,"velocity":3.074193423706294},"x":-279,"y":225,"dx":-19,"dy":24}]